start=new Date('2022-09-01T00:00:00.000Z').valueOf();
sats=[{"TLE_LINE1":"1 47980U 21024D   22243.33380772 -.00000076  00000-0  13785-4 0  9995","EPOCH":"2022-08-31T08:00:40.987008","RCS_SIZE":"LARGE","EPHEMERIS_TYPE":"0","MEAN_MOTION_DDOT":"0.0000000000000","REF_FRAME":"TEME","CENTER_NAME":"EARTH","NORAD_CAT_ID":"47980","MEAN_MOTION":"15.06396257","INCLINATION":"53.0550","LAUNCH_DATE":"2021-03-24","TLE_LINE2":"2 47980  53.0550 266.4276 0001480  65.4230 294.6913 15.06396257 81337","BSTAR":"0.00001378500000","RA_OF_ASC_NODE":"266.4276","FILE":"3552663","MEAN_ELEMENT_THEORY":"SGP4","GP_ID":"211399946","PERIOD":"95.592","OBJECT_TYPE":"PAYLOAD","ARG_OF_PERICENTER":"65.4230","OBJECT_ID":"2021-024D","SEMIMAJOR_AXIS":"6925.360","APOAPSIS":"548.250","COUNTRY_CODE":"US","MEAN_MOTION_DOT":"-0.00000076","TIME_SYSTEM":"UTC","OBJECT_NAME":"STARLINK-2312","PERIAPSIS":"546.200","DECAY_DATE":null,"ECCENTRICITY":"0.00014800","REV_AT_EPOCH":"8133","ELEMENT_SET_NO":"999","MEAN_ANOMALY":"294.6913","CLASSIFICATION_TYPE":"U","SITE":"AFETR"},{"SITE":"AFETR","CLASSIFICATION_TYPE":"U","MEAN_ANOMALY":"264.0238","REV_AT_EPOCH":"8017","ECCENTRICITY":"0.00013550","ELEMENT_SET_NO":"999","DECAY_DATE":null,"PERIAPSIS":"546.314","OBJECT_NAME":"STARLINK-2303","TIME_SYSTEM":"UTC","MEAN_MOTION_DOT":"0.00002114","COUNTRY_CODE":"US","APOAPSIS":"548.191","SEMIMAJOR_AXIS":"6925.387","OBJECT_ID":"2021-024E","ARG_OF_PERICENTER":"96.0905","OBJECT_TYPE":"PAYLOAD","PERIOD":"95.593","GP_ID":"211367180","MEAN_ELEMENT_THEORY":"SGP4","FILE":"3552348","RA_OF_ASC_NODE":"350.5532","BSTAR":"0.00016084000000","TLE_LINE2":"2 47981  53.0561 350.5532 0001355  96.0905 264.0238 15.06387394 80174","LAUNCH_DATE":"2021-03-24","INCLINATION":"53.0561","MEAN_MOTION":"15.06387394","CENTER_NAME":"EARTH","NORAD_CAT_ID":"47981","MEAN_MOTION_DDOT":"0.0000000000000","REF_FRAME":"TEME","EPHEMERIS_TYPE":"0","RCS_SIZE":"LARGE","EPOCH":"2022-08-31T11:56:11.604192","TLE_LINE1":"1 47981U 21024E   22243.49735653  .00002114  00000-0  16084-3 0  9993"},{"APOAPSIS":"548.260","SEMIMAJOR_AXIS":"6925.347","OBJECT_ID":"2021-024F","ARG_OF_PERICENTER":"65.9826","PERIOD":"95.592","OBJECT_TYPE":"PAYLOAD","CLASSIFICATION_TYPE":"U","SITE":"AFETR","MEAN_ANOMALY":"294.1322","ELEMENT_SET_NO":"999","REV_AT_EPOCH":"8161","ECCENTRICITY":"0.00015140","OBJECT_NAME":"STARLINK-2317","PERIAPSIS":"546.163","DECAY_DATE":null,"TIME_SYSTEM":"UTC","COUNTRY_CODE":"US","MEAN_MOTION_DOT":"-0.00000074","BSTAR":"0.00001390000000","TLE_LINE2":"2 47982  53.0549 280.9425 0001514  65.9826 294.1322 15.06400524 81611","INCLINATION":"53.0549","LAUNCH_DATE":"2021-03-24","MEAN_MOTION":"15.06400524","CENTER_NAME":"EARTH","NORAD_CAT_ID":"47982","REF_FRAME":"TEME","MEAN_MOTION_DDOT":"0.0000000000000","TLE_LINE1":"1 47982U 21024F   22243.41165139 -.00000074  00000-0  13900-4 0  9991","RCS_SIZE":"LARGE","EPHEMERIS_TYPE":"0","EPOCH":"2022-08-31T09:52:46.680096","GP_ID":"211392695","MEAN_ELEMENT_THEORY":"SGP4","FILE":"3552511","RA_OF_ASC_NODE":"280.9425"},{"TLE_LINE2":"2 47985  53.0549 285.4950 0001343  82.8926 277.2215 15.06389502 81554","INCLINATION":"53.0549","LAUNCH_DATE":"2021-03-24","BSTAR":"0.00004176600000","MEAN_MOTION_DDOT":"0.0000000000000","REF_FRAME":"TEME","EPHEMERIS_TYPE":"0","RCS_SIZE":"LARGE","EPOCH":"2022-08-31T13:11:11.519232","TLE_LINE1":"1 47985U 21024J   22243.54943888  .00000341  00000-0  41766-4 0  9990","MEAN_MOTION":"15.06389502","NORAD_CAT_ID":"47985","CENTER_NAME":"EARTH","GP_ID":"211393446","MEAN_ELEMENT_THEORY":"SGP4","RA_OF_ASC_NODE":"285.4950","FILE":"3552511","SEMIMAJOR_AXIS":"6925.381","APOAPSIS":"548.176","PERIOD":"95.593","OBJECT_TYPE":"PAYLOAD","ARG_OF_PERICENTER":"82.8926","OBJECT_ID":"2021-024J","MEAN_ANOMALY":"277.2215","ECCENTRICITY":"0.00013430","ELEMENT_SET_NO":"999","REV_AT_EPOCH":"8155","CLASSIFICATION_TYPE":"U","SITE":"AFETR","MEAN_MOTION_DOT":"0.00000341","COUNTRY_CODE":"US","DECAY_DATE":null,"OBJECT_NAME":"STARLINK-2308","PERIAPSIS":"546.316","TIME_SYSTEM":"UTC"},{"MEAN_MOTION":"15.06389929","CENTER_NAME":"EARTH","NORAD_CAT_ID":"47989","MEAN_MOTION_DDOT":"0.0000000000000","REF_FRAME":"TEME","EPHEMERIS_TYPE":"0","RCS_SIZE":"LARGE","EPOCH":"2022-08-31T06:28:26.007744","TLE_LINE1":"1 47989U 21024N   22243.26974546  .00000555  00000-0  56157-4 0  9995","BSTAR":"0.00005615700000","TLE_LINE2":"2 47989  53.0536 261.6004 0001352  89.3987 270.7157 15.06389929 81870","INCLINATION":"53.0536","LAUNCH_DATE":"2021-03-24","FILE":"3552511","RA_OF_ASC_NODE":"261.6004","GP_ID":"211392194","MEAN_ELEMENT_THEORY":"SGP4","OBJECT_ID":"2021-024N","ARG_OF_PERICENTER":"89.3987","OBJECT_TYPE":"PAYLOAD","PERIOD":"95.593","APOAPSIS":"548.181","SEMIMAJOR_AXIS":"6925.379","DECAY_DATE":null,"PERIAPSIS":"546.308","OBJECT_NAME":"STARLINK-2305","TIME_SYSTEM":"UTC","MEAN_MOTION_DOT":"0.00000555","COUNTRY_CODE":"US","SITE":"AFETR","CLASSIFICATION_TYPE":"U","MEAN_ANOMALY":"270.7157","REV_AT_EPOCH":"8187","ELEMENT_SET_NO":"999","ECCENTRICITY":"0.00013520"},{"DECAY_DATE":null,"OBJECT_NAME":"STARLINK-2307","PERIAPSIS":"546.065","TIME_SYSTEM":"UTC","MEAN_MOTION_DOT":"-0.00000291","COUNTRY_CODE":"US","SITE":"AFETR","CLASSIFICATION_TYPE":"U","MEAN_ANOMALY":"283.3355","ELEMENT_SET_NO":"999","ECCENTRICITY":"0.00016670","REV_AT_EPOCH":"8141","OBJECT_ID":"2021-024P","ARG_OF_PERICENTER":"76.7820","OBJECT_TYPE":"PAYLOAD","PERIOD":"95.592","APOAPSIS":"548.374","SEMIMAJOR_AXIS":"6925.355","FILE":"3552442","RA_OF_ASC_NODE":"260.8923","GP_ID":"211369975","MEAN_ELEMENT_THEORY":"SGP4","MEAN_MOTION":"15.06397936","NORAD_CAT_ID":"47990","CENTER_NAME":"EARTH","MEAN_MOTION_DDOT":"0.0000000000000","REF_FRAME":"TEME","RCS_SIZE":"LARGE","EPHEMERIS_TYPE":"0","EPOCH":"2022-08-31T10:06:03.412512","TLE_LINE1":"1 47990U 21024P   22243.42087283 -.00000291  00000-0 -62616-6 0  9996","BSTAR":"-0.00000062616000","TLE_LINE2":"2 47990  53.0539 260.8923 0001667  76.7820 283.3355 15.06397936 81418","LAUNCH_DATE":"2021-03-24","INCLINATION":"53.0539"},{"SEMIMAJOR_AXIS":"6925.295","APOAPSIS":"548.074","OBJECT_TYPE":"PAYLOAD","PERIOD":"95.591","OBJECT_ID":"2021-024Q","ARG_OF_PERICENTER":"90.1915","ELEMENT_SET_NO":"999","ECCENTRICITY":"0.00013190","REV_AT_EPOCH":"8121","MEAN_ANOMALY":"269.9226","SITE":"AFETR","CLASSIFICATION_TYPE":"U","MEAN_MOTION_DOT":"-0.00003116","COUNTRY_CODE":"US","TIME_SYSTEM":"UTC","DECAY_DATE":null,"PERIAPSIS":"546.247","OBJECT_NAME":"STARLINK-2279","INCLINATION":"53.0540","LAUNCH_DATE":"2021-03-24","TLE_LINE2":"2 47991  53.0540 275.5764 0001319  90.1915 269.9226 15.06417451 81216","BSTAR":"-0.00019026000000","EPHEMERIS_TYPE":"0","RCS_SIZE":"LARGE","EPOCH":"2022-08-31T11:58:09.989472","TLE_LINE1":"1 47991U 21024Q   22243.49872673 -.00003116  00000-0 -19026-3 0  9992","REF_FRAME":"TEME","MEAN_MOTION_DDOT":"0.0000000000000","NORAD_CAT_ID":"47991","CENTER_NAME":"EARTH","MEAN_MOTION":"15.06417451","MEAN_ELEMENT_THEORY":"SGP4","GP_ID":"211399952","RA_OF_ASC_NODE":"275.5764","FILE":"3552714"},{"OBJECT_TYPE":"PAYLOAD","PERIOD":"95.593","ARG_OF_PERICENTER":"72.8816","OBJECT_ID":"2021-024R","SEMIMAJOR_AXIS":"6925.381","APOAPSIS":"548.233","COUNTRY_CODE":"US","MEAN_MOTION_DOT":"-0.00000191","TIME_SYSTEM":"UTC","PERIAPSIS":"546.259","OBJECT_NAME":"STARLINK-2229","DECAY_DATE":null,"ELEMENT_SET_NO":"999","ECCENTRICITY":"0.00014250","REV_AT_EPOCH":"8128","MEAN_ANOMALY":"287.2329","CLASSIFICATION_TYPE":"U","SITE":"AFETR","TLE_LINE1":"1 47992U 21024R   22243.45313439 -.00000191  00000-0  60962-5 0  9995","RCS_SIZE":"LARGE","EPHEMERIS_TYPE":"0","EPOCH":"2022-08-31T10:52:30.811296","REF_FRAME":"TEME","MEAN_MOTION_DDOT":"0.0000000000000","NORAD_CAT_ID":"47992","CENTER_NAME":"EARTH","MEAN_MOTION":"15.06389438","INCLINATION":"53.0543","LAUNCH_DATE":"2021-03-24","TLE_LINE2":"2 47992  53.0543 270.8502 0001425  72.8816 287.2329 15.06389438 81280","BSTAR":"0.00000609620000","RA_OF_ASC_NODE":"270.8502","FILE":"3552664","MEAN_ELEMENT_THEORY":"SGP4","GP_ID":"211400473"},{"PERIAPSIS":"546.335","OBJECT_NAME":"STARLINK-2273","DECAY_DATE":null,"TIME_SYSTEM":"UTC","COUNTRY_CODE":"US","MEAN_MOTION_DOT":"0.00000402","SITE":"AFETR","CLASSIFICATION_TYPE":"U","MEAN_ANOMALY":"272.4091","ELEMENT_SET_NO":"999","REV_AT_EPOCH":"8127","ECCENTRICITY":"0.00012990","ARG_OF_PERICENTER":"87.7046","OBJECT_ID":"2021-024S","PERIOD":"95.593","OBJECT_TYPE":"PAYLOAD","APOAPSIS":"548.134","SEMIMAJOR_AXIS":"6925.369","FILE":"3552761","RA_OF_ASC_NODE":"310.1447","GP_ID":"211423665","MEAN_ELEMENT_THEORY":"SGP4","MEAN_MOTION":"15.06393179","CENTER_NAME":"EARTH","NORAD_CAT_ID":"47993","MEAN_MOTION_DDOT":"0.0000000000000","REF_FRAME":"TEME","TLE_LINE1":"1 47993U 21024S   22243.59317853  .00000402  00000-0  45906-4 0  9999","RCS_SIZE":"LARGE","EPHEMERIS_TYPE":"0","EPOCH":"2022-08-31T14:14:10.624992","BSTAR":"0.00004590600000","TLE_LINE2":"2 47993  53.0538 310.1447 0001299  87.7046 272.4091 15.06393179 81278","LAUNCH_DATE":"2021-03-24","INCLINATION":"53.0538"},{"ARG_OF_PERICENTER":"86.1689","OBJECT_ID":"2021-024T","PERIOD":"95.592","OBJECT_TYPE":"PAYLOAD","APOAPSIS":"548.055","SEMIMAJOR_AXIS":"6925.361","TIME_SYSTEM":"UTC","PERIAPSIS":"546.397","OBJECT_NAME":"STARLINK-2290","DECAY_DATE":null,"COUNTRY_CODE":"US","MEAN_MOTION_DOT":"0.00000805","SITE":"AFETR","CLASSIFICATION_TYPE":"U","ECCENTRICITY":"0.00011970","REV_AT_EPOCH":"8052","ELEMENT_SET_NO":"999","MEAN_ANOMALY":"273.9437","NORAD_CAT_ID":"47994","CENTER_NAME":"EARTH","MEAN_MOTION":"15.06395836","TLE_LINE1":"1 47994U 21024T   22243.46463735  .00000805  00000-0  72932-4 0  9993","EPOCH":"2022-08-31T11:09:04.667040","RCS_SIZE":"LARGE","EPHEMERIS_TYPE":"0","REF_FRAME":"TEME","MEAN_MOTION_DDOT":"0.0000000000000","BSTAR":"0.00007293200000","LAUNCH_DATE":"2021-03-24","INCLINATION":"53.0558","TLE_LINE2":"2 47994  53.0558 325.7139 0001197  86.1689 273.9437 15.06395836 80523","FILE":"3552349","RA_OF_ASC_NODE":"325.7139","MEAN_ELEMENT_THEORY":"SGP4","GP_ID":"211367188"}];
